start=new Date('2022-01-04T00:00:00.000Z').valueOf();
sats=[{"PERIOD":"95.592","MEAN_ELEMENT_THEORY":"SGP4","EPOCH":"2022-01-03T09:28:31.245312","OBJECT_TYPE":"PAYLOAD","SEMIMAJOR_AXIS":"6925.342","REF_FRAME":"TEME","CENTER_NAME":"EARTH","RA_OF_ASC_NODE":"333.4144","TLE_LINE1":"1 46742U 20074D   22003.39480608  .00001480  00000-0  11823-3 0  9992","NORAD_CAT_ID":"46742","APOAPSIS":"548.428","MEAN_MOTION":"15.06402292","TIME_SYSTEM":"UTC","OBJECT_NAME":"STARLINK-1872","COUNTRY_CODE":"US","DECAY_DATE":null,"LAUNCH_DATE":"2020-10-24","OBJECT_ID":"2020-074D","TLE_LINE2":"2 46742  53.0554 333.4144 0001764  63.7176 296.3994 15.06402292 66620","ECCENTRICITY":"0.00017640","BSTAR":"0.00011823000000","EPHEMERIS_TYPE":"0","RCS_SIZE":"LARGE","PERIAPSIS":"545.985","FILE":"3255250","MEAN_MOTION_DOT":"0.00001480","GP_ID":"192968032","CLASSIFICATION_TYPE":"U","ARG_OF_PERICENTER":"63.7176","SITE":"AFETR","REV_AT_EPOCH":"6662","INCLINATION":"53.0554","MEAN_MOTION_DDOT":"0.0000000000000","MEAN_ANOMALY":"296.3994","ELEMENT_SET_NO":"999"},{"NORAD_CAT_ID":"46743","APOAPSIS":"548.806","MEAN_MOTION":"15.06401272","TIME_SYSTEM":"UTC","OBJECT_NAME":"STARLINK-1892","COUNTRY_CODE":"US","DECAY_DATE":null,"LAUNCH_DATE":"2020-10-24","PERIOD":"95.592","MEAN_ELEMENT_THEORY":"SGP4","EPOCH":"2022-01-03T02:02:40.325280","OBJECT_TYPE":"PAYLOAD","SEMIMAJOR_AXIS":"6925.345","REF_FRAME":"TEME","CENTER_NAME":"EARTH","RA_OF_ASC_NODE":"334.8074","TLE_LINE1":"1 46743U 20074E   22003.08518895  .00000944  00000-0  82307-4 0  9999","RCS_SIZE":"LARGE","EPHEMERIS_TYPE":"0","PERIAPSIS":"545.613","FILE":"3255250","MEAN_MOTION_DOT":"0.00000944","GP_ID":"192969284","CLASSIFICATION_TYPE":"U","ARG_OF_PERICENTER":"167.7459","SITE":"AFETR","INCLINATION":"53.0552","REV_AT_EPOCH":"6658","MEAN_MOTION_DDOT":"0.0000000000000","MEAN_ANOMALY":"192.3587","ELEMENT_SET_NO":"999","OBJECT_ID":"2020-074E","TLE_LINE2":"2 46743  53.0552 334.8074 0002305 167.7459 192.3587 15.06401272 66582","ECCENTRICITY":"0.00023050","BSTAR":"0.00008230700000"},{"PERIOD":"95.592","EPOCH":"2022-01-03T02:29:12.373152","MEAN_ELEMENT_THEORY":"SGP4","OBJECT_TYPE":"PAYLOAD","SEMIMAJOR_AXIS":"6925.338","REF_FRAME":"TEME","CENTER_NAME":"EARTH","TLE_LINE1":"1 46744U 20074F   22003.10361543  .00001476  00000-0  11797-3 0  9994","RA_OF_ASC_NODE":"334.7203","MEAN_MOTION":"15.06403414","NORAD_CAT_ID":"46744","APOAPSIS":"548.398","OBJECT_NAME":"STARLINK-1894","TIME_SYSTEM":"UTC","COUNTRY_CODE":"US","DECAY_DATE":null,"LAUNCH_DATE":"2020-10-24","TLE_LINE2":"2 46744  53.0548 334.7203 0001725  59.6192 300.4967 15.06403414 66583","OBJECT_ID":"2020-074F","ECCENTRICITY":"0.00017250","BSTAR":"0.00011797000000","RCS_SIZE":"LARGE","EPHEMERIS_TYPE":"0","PERIAPSIS":"546.008","FILE":"3255250","GP_ID":"192969030","MEAN_MOTION_DOT":"0.00001476","CLASSIFICATION_TYPE":"U","REV_AT_EPOCH":"6658","SITE":"AFETR","INCLINATION":"53.0548","ARG_OF_PERICENTER":"59.6192","MEAN_MOTION_DDOT":"0.0000000000000","ELEMENT_SET_NO":"999","MEAN_ANOMALY":"300.4967"},{"INCLINATION":"53.0564","SITE":"AFETR","REV_AT_EPOCH":"6676","ARG_OF_PERICENTER":"83.8793","CLASSIFICATION_TYPE":"U","GP_ID":"192968283","MEAN_MOTION_DOT":"0.00010342","ELEMENT_SET_NO":"999","MEAN_ANOMALY":"276.2648","MEAN_MOTION_DDOT":"0.0000000000000","PERIAPSIS":"431.357","EPHEMERIS_TYPE":"0","RCS_SIZE":"LARGE","FILE":"3255250","BSTAR":"0.00023121000000","ECCENTRICITY":"0.00038300","TLE_LINE2":"2 46745  53.0564 322.3759 0003830  83.8793 276.2648 15.44120327 66763","OBJECT_ID":"2020-074G","COUNTRY_CODE":"US","LAUNCH_DATE":"2020-10-24","DECAY_DATE":null,"MEAN_MOTION":"15.44120327","APOAPSIS":"436.575","NORAD_CAT_ID":"46745","TIME_SYSTEM":"UTC","OBJECT_NAME":"STARLINK-1898","CENTER_NAME":"EARTH","REF_FRAME":"TEME","TLE_LINE1":"1 46745U 20074G   22003.19783277  .00010342  00000-0  23121-3 0  9992","RA_OF_ASC_NODE":"322.3759","EPOCH":"2022-01-03T04:44:52.751328","MEAN_ELEMENT_THEORY":"SGP4","PERIOD":"93.257","SEMIMAJOR_AXIS":"6812.101","OBJECT_TYPE":"PAYLOAD"},{"SITE":"AFETR","INCLINATION":"53.0554","REV_AT_EPOCH":"6662","ARG_OF_PERICENTER":"63.7740","CLASSIFICATION_TYPE":"U","GP_ID":"192968533","MEAN_MOTION_DOT":"0.00006413","ELEMENT_SET_NO":"999","MEAN_ANOMALY":"296.3440","MEAN_MOTION_DDOT":"0.0000000000000","PERIAPSIS":"545.895","EPHEMERIS_TYPE":"0","RCS_SIZE":"LARGE","FILE":"3255250","BSTAR":"0.00044894000000","ECCENTRICITY":"0.00018640","TLE_LINE2":"2 46746  53.0554 333.4675 0001864  63.7740 296.3440 15.06409031 66625","OBJECT_ID":"2020-074H","COUNTRY_CODE":"US","LAUNCH_DATE":"2020-10-24","DECAY_DATE":null,"MEAN_MOTION":"15.06409031","NORAD_CAT_ID":"46746","APOAPSIS":"548.477","OBJECT_NAME":"STARLINK-1905","TIME_SYSTEM":"UTC","CENTER_NAME":"EARTH","REF_FRAME":"TEME","TLE_LINE1":"1 46746U 20074H   22003.38375385  .00006413  00000-0  44894-3 0  9995","RA_OF_ASC_NODE":"333.4675","EPOCH":"2022-01-03T09:12:36.332640","MEAN_ELEMENT_THEORY":"SGP4","PERIOD":"95.592","SEMIMAJOR_AXIS":"6925.321","OBJECT_TYPE":"PAYLOAD"},{"MEAN_MOTION_DDOT":"0.0000000000000","ELEMENT_SET_NO":"999","MEAN_ANOMALY":"300.0342","MEAN_MOTION_DOT":"0.00000468","GP_ID":"192968784","CLASSIFICATION_TYPE":"U","SITE":"AFETR","INCLINATION":"53.0552","REV_AT_EPOCH":"6658","ARG_OF_PERICENTER":"60.0835","FILE":"3255250","EPHEMERIS_TYPE":"0","RCS_SIZE":"LARGE","PERIAPSIS":"545.898","ECCENTRICITY":"0.00018970","BSTAR":"0.00005032300000","TLE_LINE2":"2 46747  53.0552 334.7345 0001897  60.0835 300.0342 15.06400648 66587","OBJECT_ID":"2020-074J","DECAY_DATE":null,"LAUNCH_DATE":"2020-10-24","COUNTRY_CODE":"US","OBJECT_NAME":"STARLINK-1908","TIME_SYSTEM":"UTC","MEAN_MOTION":"15.06400648","NORAD_CAT_ID":"46747","APOAPSIS":"548.525","TLE_LINE1":"1 46747U 20074J   22003.09993651  .00000468  00000-0  50323-4 0  9995","RA_OF_ASC_NODE":"334.7345","REF_FRAME":"TEME","CENTER_NAME":"EARTH","OBJECT_TYPE":"PAYLOAD","SEMIMAJOR_AXIS":"6925.347","PERIOD":"95.592","EPOCH":"2022-01-03T02:23:54.514464","MEAN_ELEMENT_THEORY":"SGP4"},{"OBJECT_NAME":"STARLINK-1910","TIME_SYSTEM":"UTC","MEAN_MOTION":"15.06405130","NORAD_CAT_ID":"46748","APOAPSIS":"548.403","LAUNCH_DATE":"2020-10-24","DECAY_DATE":null,"COUNTRY_CODE":"US","SEMIMAJOR_AXIS":"6925.333","OBJECT_TYPE":"PAYLOAD","EPOCH":"2022-01-03T07:21:08.150112","MEAN_ELEMENT_THEORY":"SGP4","PERIOD":"95.592","TLE_LINE1":"1 46748U 20074K   22003.30634433  .00003924  00000-0  28215-3 0  9994","RA_OF_ASC_NODE":"333.8233","CENTER_NAME":"EARTH","REF_FRAME":"TEME","FILE":"3255250","PERIAPSIS":"545.993","RCS_SIZE":"LARGE","EPHEMERIS_TYPE":"0","ELEMENT_SET_NO":"999","MEAN_ANOMALY":"297.6146","MEAN_MOTION_DDOT":"0.0000000000000","SITE":"AFETR","REV_AT_EPOCH":"6661","INCLINATION":"53.0551","ARG_OF_PERICENTER":"62.5019","GP_ID":"192969531","MEAN_MOTION_DOT":"0.00003924","CLASSIFICATION_TYPE":"U","TLE_LINE2":"2 46748  53.0551 333.8233 0001740  62.5019 297.6146 15.06405130 66619","OBJECT_ID":"2020-074K","BSTAR":"0.00028215000000","ECCENTRICITY":"0.00017400"},{"EPHEMERIS_TYPE":"0","RCS_SIZE":"LARGE","PERIAPSIS":"545.999","FILE":"3255250","CLASSIFICATION_TYPE":"U","GP_ID":"192967783","MEAN_MOTION_DOT":"0.00000560","SITE":"AFETR","REV_AT_EPOCH":"6664","INCLINATION":"53.0564","ARG_OF_PERICENTER":"65.1930","MEAN_MOTION_DDOT":"0.0000000000000","ELEMENT_SET_NO":"999","MEAN_ANOMALY":"294.9243","TLE_LINE2":"2 46749  53.0564 332.8959 0001775  65.1930 294.9243 15.06395243 66641","OBJECT_ID":"2020-074L","ECCENTRICITY":"0.00017750","BSTAR":"0.00005648300000","MEAN_MOTION":"15.06395243","APOAPSIS":"548.457","NORAD_CAT_ID":"46749","TIME_SYSTEM":"UTC","OBJECT_NAME":"STARLINK-1911","COUNTRY_CODE":"US","DECAY_DATE":null,"LAUNCH_DATE":"2020-10-24","PERIOD":"95.592","EPOCH":"2022-01-03T12:18:22.524480","MEAN_ELEMENT_THEORY":"SGP4","OBJECT_TYPE":"PAYLOAD","SEMIMAJOR_AXIS":"6925.363","REF_FRAME":"TEME","CENTER_NAME":"EARTH","TLE_LINE1":"1 46749U 20074L   22003.51276070  .00000560  00000-0  56483-4 0  9999","RA_OF_ASC_NODE":"332.8959"},{"MEAN_MOTION_DDOT":"0.0000000000000","ELEMENT_SET_NO":"999","MEAN_ANOMALY":"300.4936","CLASSIFICATION_TYPE":"U","GP_ID":"193045885","MEAN_MOTION_DOT":"-0.00000974","INCLINATION":"53.0548","SITE":"AFETR","REV_AT_EPOCH":"6663","ARG_OF_PERICENTER":"59.6299","FILE":"3257870","RCS_SIZE":"LARGE","EPHEMERIS_TYPE":"0","PERIAPSIS":"545.488","ECCENTRICITY":"0.00024880","BSTAR":"-0.00004644700000","TLE_LINE2":"2 46751  53.0548 333.5092 0002488  59.6299 300.4936 15.06400788 66632","OBJECT_ID":"2020-074N","DECAY_DATE":null,"LAUNCH_DATE":"2020-10-24","COUNTRY_CODE":"US","TIME_SYSTEM":"UTC","OBJECT_NAME":"STARLINK-1920","MEAN_MOTION":"15.06400788","NORAD_CAT_ID":"46751","APOAPSIS":"548.934","TLE_LINE1":"1 46751U 20074N   22003.37637519 -.00000974  00000-0 -46447-4 0  9995","RA_OF_ASC_NODE":"333.5092","REF_FRAME":"TEME","CENTER_NAME":"EARTH","OBJECT_TYPE":"PAYLOAD","SEMIMAJOR_AXIS":"6925.346","PERIOD":"95.592","EPOCH":"2022-01-03T09:01:58.816416","MEAN_ELEMENT_THEORY":"SGP4"},{"GP_ID":"192969285","CLASSIFICATION_TYPE":"U","MEAN_MOTION_DOT":"0.00000630","INCLINATION":"53.0546","SITE":"AFETR","REV_AT_EPOCH":"6661","ARG_OF_PERICENTER":"58.7032","MEAN_MOTION_DDOT":"0.0000000000000","ELEMENT_SET_NO":"999","MEAN_ANOMALY":"301.4114","RCS_SIZE":"LARGE","EPHEMERIS_TYPE":"0","PERIAPSIS":"546.096","FILE":"3255250","ECCENTRICITY":"0.00016070","BSTAR":"0.00006117600000","TLE_LINE2":"2 46752  53.0546 333.7555 0001607  58.7032 301.4114 15.06401671 66613","OBJECT_ID":"2020-074P","COUNTRY_CODE":"US","DECAY_DATE":null,"LAUNCH_DATE":"2020-10-24","MEAN_MOTION":"15.06401671","NORAD_CAT_ID":"46752","APOAPSIS":"548.321","OBJECT_NAME":"STARLINK-1921","TIME_SYSTEM":"UTC","REF_FRAME":"TEME","CENTER_NAME":"EARTH","TLE_LINE1":"1 46752U 20074P   22003.32108457  .00000630  00000-0  61176-4 0  9998","RA_OF_ASC_NODE":"333.7555","PERIOD":"95.592","EPOCH":"2022-01-03T07:42:21.706848","MEAN_ELEMENT_THEORY":"SGP4","OBJECT_TYPE":"PAYLOAD","SEMIMAJOR_AXIS":"6925.343"}];
